{"type": "FeatureCollection", "features": [ {"type": "Feature", "properties": {"norad_id": 66583, "name": "STARLINK-35941", "group": "last-30-days", "lat": 34.32850991900986, "lon": -150.86110809589263, "alt_km": 404.02652833133834, "timestamp": "2025-12-20T09:36:00.350958+00:00", "meta": {"OBJECT_NAME": "STARLINK-35941", "OBJECT_ID": "2025-268AC", "EPOCH": "2025-12-19T16:04:41.529504", "MEAN_MOTION": 15.51345807, "ECCENTRICITY": 0.00013763, "INCLINATION": 42.9996, "RA_OF_ASC_NODE": 80.5444, "ARG_OF_PERICENTER": 334.8074, "MEAN_ANOMALY": 25.2719, "EPHEMERIS_TYPE": 0, "CLASSIFICATION_TYPE": "U", "NORAD_CAT_ID": 66583, "ELEMENT_SET_NO": 999, "REV_AT_EPOCH": 570, "BSTAR": 0.01517546, "MEAN_MOTION_DOT": 0.01004457, "MEAN_MOTION_DDOT": 0}, "tle": {"line1": "1 66583U 25268AC  25353.66992511  .01004457  00000+0  15175-1 0  9998", "line2": "2 66583  42.9996  80.5444 0001376 334.8074  25.2719 15.51345807  5707"}}, "geometry": {"type": "Point", "coordinates": [-150.86110809589263, 34.32850991900986]}}, {"type": "Feature", "properties": {"norad_id": 66584, "name": "STARLINK-35939", "group": "last-30-days", "lat": 34.94456012385695, "lon": -152.3147774564579, "alt_km": 408.02341612888085, "timestamp": "2025-12-20T09:36:00.350968+00:00", "meta": {"OBJECT_NAME": "STARLINK-35939", "OBJECT_ID": "2025-268AD", "EPOCH": "2025-12-19T14:31:27.869088", "MEAN_MOTION": 15.50751867, "ECCENTRICITY": 0.0002615, "INCLINATION": 42.9992, "RA_OF_ASC_NODE": 80.9182, "ARG_OF_PERICENTER": 187.8218, "MEAN_ANOMALY": 172.2602, "EPHEMERIS_TYPE": 0, "CLASSIFICATION_TYPE": "U", "NORAD_CAT_ID": 66584, "ELEMENT_SET_NO": 999, "REV_AT_EPOCH": 569, "BSTAR": 0.0012867, "MEAN_MOTION_DOT": 0.00076356, "MEAN_MOTION_DDOT": 0}, "tle": {"line1": "1 66584U 25268AD  25353.60518367  .00076356  00000+0  12867-2 0  9998", "line2": "2 66584  42.9992  80.9182 0002615 187.8218 172.2602 15.50751867  5698"}}, "geometry": {"type": "Point", "coordinates": [-152.3147774564579, 34.94456012385695]}}, {"type": "Feature", "properties": {"norad_id": 66585, "name": "STARLINK-35963", "group": "last-30-days", "lat": 32.96772987065741, "lon": -147.84688922166592, "alt_km": 405.19586016275844, "timestamp": "2025-12-20T09:36:00.350982+00:00", "meta": {"OBJECT_NAME": "STARLINK-35963", "OBJECT_ID": "2025-268AE", "EPOCH": "2025-12-20T02:52:34.975200", "MEAN_MOTION": 15.51655484, "ECCENTRICITY": 0.0003132, "INCLINATION": 43.0024, "RA_OF_ASC_NODE": 77.9007, "ARG_OF_PERICENTER": 70.9794, "MEAN_ANOMALY": 289.1406, "EPHEMERIS_TYPE": 0, "CLASSIFICATION_TYPE": "U", "NORAD_CAT_ID": 66585, "ELEMENT_SET_NO": 999, "REV_AT_EPOCH": 577, "BSTAR": 0.0020907, "MEAN_MOTION_DOT": 0.00129249, "MEAN_MOTION_DDOT": 0}, "tle": {"line1": "1 66585U 25268AE  25354.11984925  .00129249  00000+0  20907-2 0  9997", "line2": "2 66585  43.0024  77.9007 0003132  70.9794 289.1406 15.51655484  5773"}}, "geometry": {"type": "Point", "coordinates": [-147.84688922166592, 32.96772987065741]}}, {"type": "Feature", "properties": {"norad_id": 66586, "name": "TJS-21", "group": "last-30-days", "lat": 62.79053530993852, "lon": -119.82337925287321, "alt_km": 37899.93874705275, "timestamp": "2025-12-20T09:36:00.350996+00:00", "meta": {"OBJECT_NAME": "TJS-21", "OBJECT_ID": "2025-269A", "EPOCH": "2025-12-18T16:58:10.473888", "MEAN_MOTION": 2.00580748, "ECCENTRICITY": 0.6806869, "INCLINATION": 63.2733, "RA_OF_ASC_NODE": 161.7218, "ARG_OF_PERICENTER": 269.7428, "MEAN_ANOMALY": 18.6663, "EPHEMERIS_TYPE": 0, "CLASSIFICATION_TYPE": "U", "NORAD_CAT_ID": 66586, "ELEMENT_SET_NO": 999, "REV_AT_EPOCH": 55, "BSTAR": -0.059507049, "MEAN_MOTION_DOT": 1.084e-05, "MEAN_MOTION_DDOT": 0}, "tle": {"line1": "1 66586U 25269A   25352.70706567  .00001084  00000+0 -59507-1 0  9990", "line2": "2 66586  63.2733 161.7218 6806869 269.7428  18.6663  2.00580748   558"}}, "geometry": {"type": "Point", "coordinates": [-119.82337925287321, 62.79053530993852]}}, {"type": "Feature", "properties": {"norad_id": 66587, "name": "CZ-3B R/B", "group": "last-30-days", "lat": 42.81419311326732, "lon": -144.2009494310299, "alt_km": 37328.38467035206, "timestamp": "2025-12-20T09:36:00.351010+00:00", "meta": {"OBJECT_NAME": "CZ-3B R/B", "OBJECT_ID": "2025-269B", "EPOCH": "2025-12-18T04:21:45.908640", "MEAN_MOTION": 2.0405465, "ECCENTRICITY": 0.75166459, "INCLINATION": 51.3412, "RA_OF_ASC_NODE": 168.3764, "ARG_OF_PERICENTER": 229.6756, "MEAN_ANOMALY": 36.1575, "EPHEMERIS_TYPE": 0, "CLASSIFICATION_TYPE": "U", "NORAD_CAT_ID": 66587, "ELEMENT_SET_NO": 999, "REV_AT_EPOCH": 56, "BSTAR": 0.00058948144, "MEAN_MOTION_DOT": 0.0008861, "MEAN_MOTION_DDOT": -1.447425e-06}, "tle": {"line1": "1 66587U 25269B   25352.18178135  .00088610 -14474-5  58948-3 0  9993", "line2": "2 66587  51.3412 168.3764 7516645 229.6756  36.1575  2.04054650   560"}}, "geometry": {"type": "Point", "coordinates": [-144.2009494310299, 42.81419311326732]}}, {"type": "Feature", "properties": {"norad_id": 66588, "name": "STARLINK-36076", "group": "last-30-days", "lat": 39.97957324289505, "lon": -147.22558583163453, "alt_km": 438.9311365101694, "timestamp": "2025-12-20T09:36:00.351022+00:00", "meta": {"OBJECT_NAME": "STARLINK-36076", "OBJECT_ID": "2025-270A", "EPOCH": "2025-12-19T19:17:34.645344", "MEAN_MOTION": 15.4070464, "ECCENTRICITY": 0.00021308, "INCLINATION": 42.9989, "RA_OF_ASC_NODE": 152.0729, "ARG_OF_PERICENTER": 265.6518, "MEAN_ANOMALY": 94.4095, "EPHEMERIS_TYPE": 0, "CLASSIFICATION_TYPE": "U", "NORAD_CAT_ID": 66588, "ELEMENT_SET_NO": 999, "REV_AT_EPOCH": 543, "BSTAR": 0.00072750808, "MEAN_MOTION_DOT": 0.00030212, "MEAN_MOTION_DDOT": 0}, "tle": {"line1": "1 66588U 25270A   25353.80387321  .00030212  00000+0  72751-3 0  9991", "line2": "2 66588  42.9989 152.0729 0002130 265.6518  94.4095 15.40704640  5435"}}, "geometry": {"type": "Point", "coordinates": [-147.22558583163453, 39.97957324289505]}}, {"type": "Feature", "properties": {"norad_id": 66589, "name": "STARLINK-35447", "group": "last-30-days", "lat": 6.781445308926307, "lon": -38.93389364658462, "alt_km": 443.287480629906, "timestamp": "2025-12-20T09:36:00.351035+00:00", "meta": {"OBJECT_NAME": "STARLINK-35447", "OBJECT_ID": "2025-270B", "EPOCH": "2025-12-20T00:00:02.000160", "MEAN_MOTION": 15.40681269, "ECCENTRICITY": 0.0001453, "INCLINATION": 42.9997, "RA_OF_ASC_NODE": 150.7032, "ARG_OF_PERICENTER": 283.5937, "MEAN_ANOMALY": 185.2289, "EPHEMERIS_TYPE": 0, "CLASSIFICATION_TYPE": "U", "NORAD_CAT_ID": 66589, "ELEMENT_SET_NO": 999, "REV_AT_EPOCH": 567, "BSTAR": 0.00095922, "MEAN_MOTION_DOT": 0.0003995, "MEAN_MOTION_DDOT": 0}, "tle": {"line1": "1 66589U 25270B   25354.00002315  .00039950  00000+0  95922-3 0  9995", "line2": "2 66589  42.9997 150.7032 0001453 283.5937 185.2289 15.40681269  5679"}}, "geometry": {"type": "Point", "coordinates": [-38.93389364658462, 6.781445308926307]}}, {"type": "Feature", "properties": {"norad_id": 66590, "name": "STARLINK-35429", "group": "last-30-days", "lat": -41.636176548269454, "lon": 40.73456778640242, "alt_km": 446.2820695190021, "timestamp": "2025-12-20T09:36:00.351046+00:00", "meta": {"OBJECT_NAME": "STARLINK-35429", "OBJECT_ID": "2025-270C", "EPOCH": "2025-12-20T04:00:00.999072", "MEAN_MOTION": 15.40703893, "ECCENTRICITY": 0.0001702, "INCLINATION": 43.0003, "RA_OF_ASC_NODE": 149.5309, "ARG_OF_PERICENTER": 277.2686, "MEAN_ANOMALY": 124.0796, "EPHEMERIS_TYPE": 0, "CLASSIFICATION_TYPE": "U", "NORAD_CAT_ID": 66590, "ELEMENT_SET_NO": 999, "REV_AT_EPOCH": 570, "BSTAR": -0.00015334, "MEAN_MOTION_DOT": -6.704e-05, "MEAN_MOTION_DDOT": 0}, "tle": {"line1": "1 66590U 25270C   25354.16667823 -.00006704  00000+0 -15334-3 0  9997", "line2": "2 66590  43.0003 149.5309 0001702 277.2686 124.0796 15.40703893  5708"}}, "geometry": {"type": "Point", "coordinates": [40.73456778640242, -41.636176548269454]}}, {"type": "Feature", "properties": {"norad_id": 66591, "name": "STARLINK-36058", "group": "last-30-days", "lat": -12.278762838916622, "lon": 134.47471691309147, "alt_km": 437.6872726624333, "timestamp": "2025-12-20T09:36:00.351056+00:00", "meta": {"OBJECT_NAME": "STARLINK-36058", "OBJECT_ID": "2025-270D", "EPOCH": "2025-12-20T04:00:00.999072", "MEAN_MOTION": 15.44132264, "ECCENTRICITY": 0.0001512, "INCLINATION": 43.0002, "RA_OF_ASC_NODE": 149.3324, "ARG_OF_PERICENTER": 284.1589, "MEAN_ANOMALY": 199.5948, "EPHEMERIS_TYPE": 0, "CLASSIFICATION_TYPE": "U", "NORAD_CAT_ID": 66591, "ELEMENT_SET_NO": 999, "REV_AT_EPOCH": 559, "BSTAR": -0.048618, "MEAN_MOTION_DOT": -0.02028399, "MEAN_MOTION_DDOT": 0}, "tle": {"line1": "1 66591U 25270D   25354.16667823 -.02028399  00000+0 -48618-1 0  9993", "line2": "2 66591  43.0002 149.3324 0001512 284.1589 199.5948 15.44132264  5596"}}, "geometry": {"type": "Point", "coordinates": [134.47471691309147, -12.278762838916622]}}, {"type": "Feature", "properties": {"norad_id": 66592, "name": "STARLINK-36066", "group": "last-30-days", "lat": 35.96436707807234, "lon": -82.62653929931365, "alt_km": 438.86686112955886, "timestamp": "2025-12-20T09:36:00.351067+00:00", "meta": {"OBJECT_NAME": "STARLINK-36066", "OBJECT_ID": "2025-270E", "EPOCH": "2025-12-19T03:31:08.236704", "MEAN_MOTION": 15.40718174, "ECCENTRICITY": 0.00012951, "INCLINATION": 42.9987, "RA_OF_ASC_NODE": 155.7395, "ARG_OF_PERICENTER": 272.062, "MEAN_ANOMALY": 88.0088, "EPHEMERIS_TYPE": 0, "CLASSIFICATION_TYPE": "U", "NORAD_CAT_ID": 66592, "ELEMENT_SET_NO": 999, "REV_AT_EPOCH": 523, "BSTAR": 0.00069686524, "MEAN_MOTION_DOT": 0.00028934, "MEAN_MOTION_DDOT": 0}, "tle": {"line1": "1 66592U 25270E   25353.14662311  .00028934  00000+0  69687-3 0  9990", "line2": "2 66592  42.9987 155.7395 0001295 272.0620  88.0088 15.40718174  5230"}}, "geometry": {"type": "Point", "coordinates": [-82.62653929931365, 35.96436707807234]}}]}